STARLINK-2022           
1 47643U 21012Z   23249.96125067  .00011561  00000+0  79370-3 0  9998
2 47643  53.0532 197.9986 0001177  76.9245 283.1875 15.06403650141877
